#aV2007  1 20  0  0   .00000000      96 DD+AD WGS84 FIT  NGA
## 1410 518400.00000000   900.00000000 54120  .0000000000000
+   30     1  2  3  4  5  6  7  8  9 10 11 12 13 14 16 17 18
+         19 20 21 22 23 24 25 26 27 28 29 30 31  0  0  0  0
+          0  0  0  0  0  0  0  0  0  0  0  0  0  0  0  0  0
+          0  0  0  0  0  0  0  0  0  0  0  0  0  0  0  0  0
+          0  0  0  0  0  0  0  0  0  0  0  0  0  0  0  0  0
++         0  0  0  0  0  0  0  0  0  0  0  0  0  0  0  0  0
++         0  0  0  0  0  0  0  0  0  0  0  0  0  0  0  0  0
++         0  0  0  0  0  0  0  0  0  0  0  0  0  0  0  0  0
++         0  0  0  0  0  0  0  0  0  0  0  0  0  0  0  0  0
++         0  0  0  0  0  0  0  0  0  0  0  0  0  0  0  0  0
%c cc cc ccc ccc cccc cccc cccc cccc ccccc ccccc ccccc ccccc
%c cc cc ccc ccc cccc cccc cccc cccc ccccc ccccc ccccc ccccc
%f  0.0000000  0.000000000  0.00000000000  0.000000000000000
%f  0.0000000  0.000000000  0.00000000000  0.000000000000000
%i    0    0    0    0      0      0      0      0         0
%i    0    0    0    0      0      0      0      0         0
/*      NGA, ST. LOUIS,MO.                                  
/*   EPHEMERIS COMPUTED FROM  3 DAYS OF DATA                
/* CCCCCCCCCCCCCCCCCCCCCCCCCCCCCCCCCCCCCCCCCCCCCCCCCCCCCCCCC
/* CCCCCCCCCCCCCCCCCCCCCCCCCCCCCCCCCCCCCCCCCCCCCCCCCCCCCCCCC
*  2007  1 20  3 30   .00000000                                                 
P  1 -20596.640477 -15004.482279   7812.262772    102.529432                    
V  1   9432.494087   2423.202272  30275.701382       .022607                    
P  2  13564.499721  17461.082266 -15132.393545     74.865792                    
V  2    657.685060  18840.773077  22435.774622       .034261                    
P  3 -23709.892247 -11200.556423  -5411.794666       .576689                    
V  3   7311.268960  -1492.878902 -29739.078505       .060124                    
P  4   5818.366079  25474.448579  -3549.513591    355.747659                    
V  4  -2928.863062   4898.917956  31248.006616       .026452                    
P  5  21879.475133 -12532.501404   7877.370040     14.667415                    
V  5  -5264.391895   9576.356687  29162.149780       .124798                    
P  6  14540.974512 -10184.494561 -19583.872390    444.398300                    
V  6  23369.354492   9950.657851  12010.330270      -.236736                    
P  7  11745.884167 -11910.584160 -20312.189706    441.482787                    
V  7  24954.903631   9359.307675   8712.060459      -.110330                    
P  8  -1784.563312  25533.272298  -6297.680837    -93.711725                    
V  8  -3319.677458  -7636.796257 -31025.602344      -.013264                    
P  9  14853.297487  -1359.668475  21407.540220     53.889787                    
V  9   5067.257212  28102.120402  -1456.786319       .016854                    
P 10  16738.713441   4773.451787 -20259.670711     96.156908                    
V 10 -19839.940981  15829.579678 -12410.750348       .005308                    
P 11 -15828.676560   4910.838393  20655.333329      4.234522                    
V 11  -8109.433783 -25509.540111    141.292432       .014474                    
P 12  22882.325364 -10324.391966   8721.743100    -61.338105                    
V 12  -6986.172770   8802.824566  29139.909333       .059460                    
P 13 -11643.189926  10277.680993 -21628.338014    134.616546                    
V 13 -24706.208598 -11315.906825   7999.338365       .040166                    
P 14  -7088.632513 -16857.581642  19372.473916      5.310845                    
V 14  22769.830545   8609.376847  15825.548391       .012628                    
P 16 -11872.453155  -9793.505497 -21575.664430    114.075692                    
V 16  21704.807190 -17000.430716  -4086.279911       .038074                    
P 17   7238.589739  17240.508077  18902.421494     81.847676                    
V 17 -22725.358026  -7762.920811  15665.394020      -.014027                    
P 18  15113.714794 -19388.011272   9764.755515   -253.892740                    
V 18  11692.661189  -4851.058151 -28424.174915       .000081                    
P 19 -24930.730960  -7239.306320   5940.856954     58.638132                    
V 19  -5513.691827  -5648.956666 -30412.708440       .043862                    
P 20 -22553.437099  12477.686188   6221.214587    -22.043499                    
V 20   4422.654926  -7324.777711  30314.538503      -.001037                    
P 21   6254.047498 -22583.781204 -11856.529178     68.934885                    
V 21   4961.062173  15009.227148 -26317.682340       .011567                    
P 22   4045.490469 -18882.726049  18386.852716    162.998886                    
V 22  19741.214159 -12016.095860 -16846.704971       .022512                    
P 23 -21289.087466   3123.249759 -15776.181291    146.617678                    
V 23 -17769.308332  -8864.759160  22147.204249       .014051                    
P 24  15322.384243   2294.465116 -21373.041774     70.143285                    
V 24   1929.110548  27542.943089   4596.820717       .032851                    
P 25 -11670.348597 -21933.354631  -8833.135284    377.393031                    
V 25     23.577076 -12144.825133  28989.042081      -.118596                    
P 26  25192.215614   8367.464400   3753.865254     -2.968090                    
V 26   4206.132138   3352.548248 -31581.630906      -.178649                    
P 27  -5723.721118  21158.247708 -14165.490488     89.496910                    
V 27  -6292.435931 -18307.363911 -24016.665012       .019967                    
P 28  -7461.159609  19747.760482  16210.985696      9.224794                    
V 28 -17319.865506  10491.436433 -21510.659803      -.007897                    
P 29  24888.101635   9800.978334    114.129728    320.772171                    
V 29   -735.086113   1495.080107 -32119.373900       .154307                    
P 30  18867.215716 -18460.385321  -2636.715822     23.055758                    
V 30   4450.385484    611.429069  31260.391222       .010823                    
P 31  -7774.525566 -24630.948040  -5876.541410     -1.802214                    
V 31   1639.133270  -8053.928187  30600.349114       .053012                    
EOF
